{
  "links" : {
    "next" : "https://api.nasa.gov/neo/rest/v1/feed?start_date=2009-03-09&end_date=2009-03-09&detailed=true&api_key=t0TVs3DtDT2H8Oy2Zy8m2eVrNsAVKAexjcZXUckd",
    "prev" : "https://api.nasa.gov/neo/rest/v1/feed?start_date=2009-03-07&end_date=2009-03-07&detailed=true&api_key=t0TVs3DtDT2H8Oy2Zy8m2eVrNsAVKAexjcZXUckd",
    "self" : "https://api.nasa.gov/neo/rest/v1/feed?start_date=2009-03-08&end_date=2009-03-08&detailed=true&api_key=t0TVs3DtDT2H8Oy2Zy8m2eVrNsAVKAexjcZXUckd"
  },
  "element_count" : 4,
  "near_earth_objects" : {
    "2009-03-08" : [ {
      "links" : {
        "self" : "https://api.nasa.gov/neo/rest/v1/neo/3449132?api_key=t0TVs3DtDT2H8Oy2Zy8m2eVrNsAVKAexjcZXUckd"
      },
      "neo_reference_id" : "3449132",
      "name" : "(2009 EH1)",
      "nasa_jpl_url" : "http://ssd.jpl.nasa.gov/sbdb.cgi?sstr=3449132",
      "absolute_magnitude_h" : 27.9,
      "estimated_diameter" : {
        "kilometers" : {
          "estimated_diameter_min" : 0.0069912523,
          "estimated_diameter_max" : 0.0156329154
        },
        "meters" : {
          "estimated_diameter_min" : 6.9912523225,
          "estimated_diameter_max" : 15.6329154409
        },
        "miles" : {
          "estimated_diameter_min" : 0.0043441614,
          "estimated_diameter_max" : 0.0097138403
        },
        "feet" : {
          "estimated_diameter_min" : 22.9371802696,
          "estimated_diameter_max" : 51.289094295
        }
      },
      "is_potentially_hazardous_asteroid" : false,
      "close_approach_data" : [ {
        "close_approach_date" : "2009-03-08",
        "epoch_date_close_approach" : 1236499200000,
        "relative_velocity" : {
          "kilometers_per_second" : "10.6714588439",
          "kilometers_per_hour" : "38417.2518379259",
          "miles_per_hour" : "23870.986287849"
        },
        "miss_distance" : {
          "astronomical" : "0.0041180032",
          "lunar" : "1.6019033194",
          "kilometers" : "616044.5625",
          "miles" : "382792.34375"
        },
        "orbiting_body" : "Earth"
      } ],
      "orbital_data" : {
        "orbit_id" : "7",
        "orbit_determination_date" : "2017-04-06 09:01:05",
        "orbit_uncertainty" : "8",
        "minimum_orbit_intersection" : ".000347682",
        "jupiter_tisserand_invariant" : "5.344",
        "epoch_osculation" : "2454894.5",
        "eccentricity" : ".3494086615411397",
        "semi_major_axis" : "1.167600891109577",
        "inclination" : "1.159701311287615",
        "ascending_node_longitude" : "158.6245740862109",
        "orbital_period" : "460.8292674671663",
        "perihelion_distance" : ".7596310265327375",
        "perihelion_argument" : "93.55008026248291",
        "aphelion_distance" : "1.575570755686416",
        "perihelion_time" : "2454958.316474263654",
        "mean_anomaly" : "310.1465458971693",
        "mean_motion" : ".7812003824727771",
        "equinox" : "J2000"
      }
    }, {
      "links" : {
        "self" : "https://api.nasa.gov/neo/rest/v1/neo/3451019?api_key=t0TVs3DtDT2H8Oy2Zy8m2eVrNsAVKAexjcZXUckd"
      },
      "neo_reference_id" : "3451019",
      "name" : "(2009 EF3)",
      "nasa_jpl_url" : "http://ssd.jpl.nasa.gov/sbdb.cgi?sstr=3451019",
      "absolute_magnitude_h" : 21.5,
      "estimated_diameter" : {
        "kilometers" : {
          "estimated_diameter_min" : 0.1332155667,
          "estimated_diameter_max" : 0.2978790628
        },
        "meters" : {
          "estimated_diameter_min" : 133.2155666981,
          "estimated_diameter_max" : 297.8790627982
        },
        "miles" : {
          "estimated_diameter_min" : 0.0827762899,
          "estimated_diameter_max" : 0.1850934111
        },
        "feet" : {
          "estimated_diameter_min" : 437.0589598459,
          "estimated_diameter_max" : 977.2935443908
        }
      },
      "is_potentially_hazardous_asteroid" : false,
      "close_approach_data" : [ {
        "close_approach_date" : "2009-03-08",
        "epoch_date_close_approach" : 1236499200000,
        "relative_velocity" : {
          "kilometers_per_second" : "10.4847055689",
          "kilometers_per_hour" : "37744.9400480306",
          "miles_per_hour" : "23453.2378870666"
        },
        "miss_distance" : {
          "astronomical" : "0.2814205602",
          "lunar" : "109.4725952148",
          "kilometers" : "42099916",
          "miles" : "26159676"
        },
        "orbiting_body" : "Earth"
      } ],
      "orbital_data" : {
        "orbit_id" : "20",
        "orbit_determination_date" : "2017-04-06 09:01:03",
        "orbit_uncertainty" : "2",
        "minimum_orbit_intersection" : ".197251",
        "jupiter_tisserand_invariant" : "5.777",
        "epoch_osculation" : "2458000.5",
        "eccentricity" : ".3064746626891484",
        "semi_major_axis" : "1.049679870368052",
        "inclination" : "16.54294835548255",
        "ascending_node_longitude" : "177.6057464775442",
        "orbital_period" : "392.8110806665456",
        "perihelion_distance" : ".7279795861654146",
        "perihelion_argument" : "210.9711852043585",
        "aphelion_distance" : "1.37138015457069",
        "perihelion_time" : "2457910.509433094462",
        "mean_anomaly" : "82.47375311058229",
        "mean_motion" : ".9164710918773733",
        "equinox" : "J2000"
      }
    }, {
      "links" : {
        "self" : "https://api.nasa.gov/neo/rest/v1/neo/3589714?api_key=t0TVs3DtDT2H8Oy2Zy8m2eVrNsAVKAexjcZXUckd"
      },
      "neo_reference_id" : "3589714",
      "name" : "(2011 WS95)",
      "nasa_jpl_url" : "http://ssd.jpl.nasa.gov/sbdb.cgi?sstr=3589714",
      "absolute_magnitude_h" : 24.9,
      "estimated_diameter" : {
        "kilometers" : {
          "estimated_diameter_min" : 0.0278326768,
          "estimated_diameter_max" : 0.0622357573
        },
        "meters" : {
          "estimated_diameter_min" : 27.8326768072,
          "estimated_diameter_max" : 62.2357573367
        },
        "miles" : {
          "estimated_diameter_min" : 0.0172944182,
          "estimated_diameter_max" : 0.0386714948
        },
        "feet" : {
          "estimated_diameter_min" : 91.3145593761,
          "estimated_diameter_max" : 204.1855621004
        }
      },
      "is_potentially_hazardous_asteroid" : false,
      "close_approach_data" : [ {
        "close_approach_date" : "2009-03-08",
        "epoch_date_close_approach" : 1236499200000,
        "relative_velocity" : {
          "kilometers_per_second" : "11.7761405919",
          "kilometers_per_hour" : "42394.106130683",
          "miles_per_hour" : "26342.0488899236"
        },
        "miss_distance" : {
          "astronomical" : "0.1052200753",
          "lunar" : "40.930606842",
          "kilometers" : "15740699",
          "miles" : "9780817"
        },
        "orbiting_body" : "Earth"
      } ],
      "orbital_data" : {
        "orbit_id" : "15",
        "orbit_determination_date" : "2017-04-06 08:51:49",
        "orbit_uncertainty" : "4",
        "minimum_orbit_intersection" : ".0152911",
        "jupiter_tisserand_invariant" : "3.597",
        "epoch_osculation" : "2458000.5",
        "eccentricity" : ".5345558399852371",
        "semi_major_axis" : "2.052383228746573",
        "inclination" : "1.206298728493142",
        "ascending_node_longitude" : "232.8835387817903",
        "orbital_period" : "1073.955069882846",
        "perihelion_distance" : ".9552697879323355",
        "perihelion_argument" : "250.8177985016421",
        "aphelion_distance" : "3.14949666956081",
        "perihelion_time" : "2458093.341120978362",
        "mean_anomaly" : "328.8787692432457",
        "mean_motion" : ".3352095540079447",
        "equinox" : "J2000"
      }
    }, {
      "links" : {
        "self" : "https://api.nasa.gov/neo/rest/v1/neo/3746491?api_key=t0TVs3DtDT2H8Oy2Zy8m2eVrNsAVKAexjcZXUckd"
      },
      "neo_reference_id" : "3746491",
      "name" : "(2016 EE86)",
      "nasa_jpl_url" : "http://ssd.jpl.nasa.gov/sbdb.cgi?sstr=3746491",
      "absolute_magnitude_h" : 22.0,
      "estimated_diameter" : {
        "kilometers" : {
          "estimated_diameter_min" : 0.1058168859,
          "estimated_diameter_max" : 0.2366137501
        },
        "meters" : {
          "estimated_diameter_min" : 105.8168859331,
          "estimated_diameter_max" : 236.6137501138
        },
        "miles" : {
          "estimated_diameter_min" : 0.0657515442,
          "estimated_diameter_max" : 0.1470249225
        },
        "feet" : {
          "estimated_diameter_min" : 347.1682720448,
          "estimated_diameter_max" : 776.2918559233
        }
      },
      "is_potentially_hazardous_asteroid" : false,
      "close_approach_data" : [ {
        "close_approach_date" : "2009-03-08",
        "epoch_date_close_approach" : 1236499200000,
        "relative_velocity" : {
          "kilometers_per_second" : "8.866094221",
          "kilometers_per_hour" : "31917.939195565",
          "miles_per_hour" : "19832.5661629331"
        },
        "miss_distance" : {
          "astronomical" : "0.3322285054",
          "lunar" : "129.2368927002",
          "kilometers" : "49700680",
          "miles" : "30882570"
        },
        "orbiting_body" : "Earth"
      } ],
      "orbital_data" : {
        "orbit_id" : "9",
        "orbit_determination_date" : "2017-04-06 08:27:34",
        "orbit_uncertainty" : "5",
        "minimum_orbit_intersection" : ".153985",
        "jupiter_tisserand_invariant" : "4.055",
        "epoch_osculation" : "2458000.5",
        "eccentricity" : ".3497391401732443",
        "semi_major_axis" : "1.744178691853926",
        "inclination" : "8.771580935289647",
        "ascending_node_longitude" : "4.091098009896801",
        "orbital_period" : "841.3658715135223",
        "perihelion_distance" : "1.13417113585644",
        "perihelion_argument" : "153.8693869750733",
        "aphelion_distance" : "2.354186247851413",
        "perihelion_time" : "2458271.425741285739",
        "mean_anomaly" : "244.0774624154715",
        "mean_motion" : ".4278756866527051",
        "equinox" : "J2000"
      }
    } ]
  }
}